{
    "links": {
        "self": "http://www.neowsapp.com/rest/v1/neo/3893396?api_key=iIulBulltgU6a56xZRHN4H3l9WmuAYTsLGpBGhQ2"
    },
    "id": "3893396",
    "neo_reference_id": "3893396",
    "name": "(2019 WO1)",
    "designation": "2019 WO1",
    "nasa_jpl_url": "http://ssd.jpl.nasa.gov/sbdb.cgi?sstr=3893396",
    "absolute_magnitude_h": 26.1,
    "estimated_diameter": {
        "kilometers": {
            "estimated_diameter_min": 0.0160160338,
            "estimated_diameter_max": 0.0358129403
        },
        "meters": {
            "estimated_diameter_min": 16.0160337979,
            "estimated_diameter_max": 35.8129403019
        },
        "miles": {
            "estimated_diameter_min": 0.0099518989,
            "estimated_diameter_max": 0.0222531225
        },
        "feet": {
            "estimated_diameter_min": 52.5460443254,
            "estimated_diameter_max": 117.4965270602
        }
    },
    "is_potentially_hazardous_asteroid": false,
    "close_approach_data": [
        {
            "close_approach_date": "2019-11-16",
            "close_approach_date_full": "2019-Nov-16 16:25",
            "epoch_date_close_approach": 1573921500000,
            "relative_velocity": {
                "kilometers_per_second": "9.3796075941",
                "kilometers_per_hour": "33766.5873387241",
                "miles_per_hour": "20981.24422722"
            },
            "miss_distance": {
                "astronomical": "0.0533951167",
                "lunar": "20.7707003963",
                "kilometers": "7987795.726721429",
                "miles": "4963386.1093125602"
            },
            "orbiting_body": "Earth"
        },
        {
            "close_approach_date": "2099-12-17",
            "close_approach_date_full": "2099-Dec-17 17:23",
            "epoch_date_close_approach": 4101211380000,
            "relative_velocity": {
                "kilometers_per_second": "17.7897919748",
                "kilometers_per_hour": "64043.2511094078",
                "miles_per_hour": "39793.9856685095"
            },
            "miss_distance": {
                "astronomical": "0.3513633152",
                "lunar": "136.6803296128",
                "kilometers": "52563203.550058624",
                "miles": "32661260.1632480512"
            },
            "orbiting_body": "Earth"
        }
    ],
    "orbital_data": {
        "orbit_id": "1",
        "orbit_determination_date": "2019-11-24 03:12:02",
        "first_observation_date": "2019-11-19",
        "last_observation_date": "2019-11-24",
        "data_arc_in_days": 5,
        "observations_used": 14,
        "orbit_uncertainty": "9",
        "minimum_orbit_intersection": ".0530409",
        "jupiter_tisserand_invariant": "3.292",
        "epoch_osculation": "2458809.5",
        "eccentricity": ".5638192533629086",
        "semi_major_axis": "2.367619977021523",
        "inclination": "10.90580453814466",
        "ascending_node_longitude": "238.6873361894864",
        "orbital_period": "1330.657911543336",
        "perihelion_distance": "1.032710249330141",
        "perihelion_argument": "164.1725764612987",
        "aphelion_distance": "3.702529704712904",
        "perihelion_time": "2458795.205971221507",
        "mean_anomaly": "3.867147458124057",
        "mean_motion": ".2705428622014965",
        "equinox": "J2000",
        "orbit_class": {
            "orbit_class_type": "AMO",
            "orbit_class_description": "Near-Earth asteroid orbits similar to that of 1221 Amor",
            "orbit_class_range": "1.017 AU < q (perihelion) < 1.3 AU"
        }
    },
    "is_sentry_object": false
}